NORAD_CAT_ID,OBJECT_NAME,OBJECT_TYPE,EPOCH,MEAN_MOTION,ECCENTRICITY,INCLINATION,RA_OF_ASC_NODE,ARG_OF_PERICENTER,MEAN_ANOMALY,BSTAR,MEAN_MOTION_DOT,MEAN_MOTION_DDOT,TLE_LINE0,TLE_LINE1,TLE_LINE2,SEMIMAJOR_AXIS,PERIOD,APOGEE,PERIGEE,DECAYED
54173.0,STARLINK-5242,PAYLOAD,2023-08-11 02:06:11,15.08845505,0.0001084,53.2158,270.7186,79.7687,280.3428,0.00021668,3.163e-05,0.0,0 STARLINK-5242,1 54173U 22141S   23223.08763763  .00003163  00000-0  21668-3 0  9991,2 54173  53.2158 270.7186 0001084  79.7687 280.3428 15.08845505 43717,6917.864,95.437,540.478,538.979,0.0
54173.0,STARLINK-5242,PAYLOAD,2023-08-11 10:03:07,15.08841478,0.0001044,53.2154,269.2305,81.9075,278.2035,0.00015288,2.146e-05,0.0,0 STARLINK-5242,1 54173U 22141S   23223.41883931  .00002146  00000-0  15288-3 0  9999,2 54173  53.2154 269.2305 0001044  81.9075 278.2035 15.08841478 43761,6917.876,95.437,540.463,539.019,0.0
54173.0,STARLINK-5242,PAYLOAD,2023-08-13 03:23:09,15.08836236,0.000105,53.2166,261.4997,86.9552,273.156,4.1292e-05,3.69e-06,0.0,0 STARLINK-5242,1 54173U 22141S   23225.14108397  .00000369  00000-0  41292-4 0  9997,2 54173  53.2166 261.4997 0001050  86.9552 273.1560 15.08836236 44020,6917.892,95.438,540.483,539.031,0.0
54173.0,STARLINK-5242,PAYLOAD,2023-08-14 09:35:28,15.08842697,0.0001106,53.2162,255.8487,89.5524,270.5595,7.5236e-05,9.1e-06,0.0,0 STARLINK-5242,1 54173U 22141S   23226.39963973  .00000910  00000-0  75236-4 0  9991,2 54173  53.2162 255.8487 0001106  89.5524 270.5595 15.08842697 44215,6917.872,95.437,540.502,538.972,0.0
54173.0,STARLINK-5242,PAYLOAD,2023-08-15 01:29:20,15.08836811,0.0001154,53.2158,252.8744,81.1369,278.9754,8.1115e-05,1.003e-05,0.0,0 STARLINK-5242,1 54173U 22141S   23227.06204421  .00001003  00000-0  81115-4 0  9999,2 54173  53.2158 252.8744 0001154  81.1369 278.9754 15.08836811 44312,6917.89,95.438,540.553,538.957,0.0
54173.0,STARLINK-5242,PAYLOAD,2023-08-16 07:41:40,15.08840931,0.0001197,53.216,247.2247,78.7072,281.4054,5.076e-05,5.2e-06,0.0,0 STARLINK-5242,1 54173U 22141S   23228.32060365  .00000520  00000-0  50760-4 0  9991,2 54173  53.2160 247.2247 0001197  78.7072 281.4054 15.08840931 44502,6917.878,95.437,540.571,538.914,0.0
54173.0,STARLINK-5242,PAYLOAD,2023-08-17 10:43:12,15.08847275,0.0001144,53.2157,242.1687,84.4569,275.6553,0.00012328,1.675e-05,0.0,0 STARLINK-5242,1 54173U 22141S   23229.44667656  .00001675  00000-0  12328-3 0  9990,2 54173  53.2157 242.1687 0001144  84.4569 275.6553 15.08847275 44672,6917.858,95.437,540.515,538.932,0.0
54173.0,STARLINK-5242,PAYLOAD,2023-08-18 01:01:41,15.0883784,0.0001188,53.2154,239.4923,85.4116,274.7012,3.148e-05,2.13e-06,0.0,0 STARLINK-5242,1 54173U 22141S   23230.04284481  .00000213  00000-0  31480-4 0  9997,2 54173  53.2154 239.4923 0001188  85.4116 274.7012 15.08837840 44765,6917.887,95.438,540.574,538.93,0.0
54173.0,STARLINK-5242,PAYLOAD,2023-08-19 05:38:38,15.08839684,0.0001184,53.2152,234.1388,97.2141,262.8986,-1.0234e-05,-4.51e-06,0.0,0 STARLINK-5242,1 54173U 22141S   23231.23516490 -.00000451  00000-0 -10234-4 0  9997,2 54173  53.2152 234.1388 0001184  97.2141 262.8986 15.08839684 44941,6917.881,95.438,540.565,538.927,0.0
54173.0,STARLINK-5242,PAYLOAD,2023-08-20 07:04:48,15.0883817,0.000128,53.2162,229.3833,95.389,264.7248,8.1953e-05,1.017e-05,0.0,0 STARLINK-5242,1 54173U 22141S   23232.29500560  .00001017  00000-0  81953-4 0  9998,2 54173  53.2162 229.3833 0001280  95.3890 264.7248 15.08838170 45100,6917.886,95.438,540.636,538.865,0.0
54173.0,STARLINK-5242,PAYLOAD,2023-08-22 00:24:50,15.08838064,0.0001335,53.2165,221.6496,99.5063,260.608,3.0842e-05,2.03e-06,0.0,0 STARLINK-5242,1 54173U 22141S   23234.01724945  .00000203  00000-0  30842-4 0  9992,2 54173  53.2165 221.6496 0001335  99.5063 260.6080 15.08838064 45361,6917.886,95.438,540.675,538.828,0.0
54173.0,STARLINK-5242,PAYLOAD,2023-08-22 22:40:14,15.08818175,0.0001423,53.2168,217.4879,86.527,273.5885,0.00022322,3.264e-05,0.0,0 STARLINK-5242,1 54173U 22141S   23234.94461626  .00003264  00000-0  22322-3 0  9991,2 54173  53.2168 217.4879 0001423  86.5270 273.5885 15.08818175 45509,6917.947,95.439,540.797,538.828,0.0
54173.0,STARLINK-5242,PAYLOAD,2023-08-23 03:26:24,15.0883669,0.0001334,53.2163,216.5959,97.2755,262.8389,-1.0415e-05,-4.54e-06,0.0,0 STARLINK-5242,1 54173U 22141S   23235.14333377 -.00000454  00000-0 -10415-4 0  9996,2 54173  53.2163 216.5959 0001334  97.2755 262.8389 15.08836690 45536,6917.891,95.438,540.678,538.833,0.0
54173.0,STARLINK-5242,PAYLOAD,2023-08-24 04:52:33,15.08844701,0.0001392,53.2161,211.8381,89.7631,270.352,8.6925e-05,1.096e-05,0.0,0 STARLINK-5242,1 54173U 22141S   23236.20316700  .00001096  00000-0  86925-4 0  9995,2 54173  53.2161 211.8381 0001392  89.7631 270.3520 15.08844701 45694,6917.866,95.437,540.694,538.768,0.0
54173.0,STARLINK-5242,PAYLOAD,2023-08-25 03:07:57,15.0884066,0.0001523,53.2167,207.6742,107.9671,252.1487,7.8368e-05,9.59e-06,0.0,0 STARLINK-5242,1 54173U 22141S   23237.13052895  .00000959  00000-0  78368-4 0  9999,2 54173  53.2167 207.6742 0001523 107.9671 252.1487 15.08840660 45833,6917.878,95.438,540.797,538.69,0.0
54173.0,STARLINK-5242,PAYLOAD,2023-08-25 04:43:20,15.08841076,0.0001529,53.2168,207.377,108.0338,252.0821,8.1205e-05,1.005e-05,0.0,0 STARLINK-5242,1 54173U 22141S   23237.19676852  .00001005  00000-0  81205-4 0  9997,2 54173  53.2168 207.3770 0001529 108.0338 252.0821 15.08841076 45844,6917.877,95.437,540.8,538.684,0.0
54173.0,STARLINK-5242,PAYLOAD,2023-08-25 22:12:35,15.08839296,0.0001621,53.2174,204.1078,110.785,249.3316,-1.5551e-05,-5.36e-06,0.0,0 STARLINK-5242,1 54173U 22141S   23237.92541317 -.00000536  00000-0 -15551-4 0  9996,2 54173  53.2174 204.1078 0001621 110.7850 249.3316 15.08839296 45950,6917.883,95.438,540.869,538.626,0.0
54173.0,STARLINK-5242,PAYLOAD,2023-08-26 07:44:54,15.08839606,0.0001445,53.2163,202.3208,104.2244,255.8909,-1.7245e-05,-5.62e-06,0.0,0 STARLINK-5242,1 54173U 22141S   23238.32285283 -.00000562  00000-0 -17245-4 0  9999,2 54173  53.2163 202.3208 0001445 104.2244 255.8909 15.08839606 46015,6917.882,95.438,540.746,538.747,0.0
54173.0,STARLINK-5242,PAYLOAD,2023-08-27 01:14:08,15.08839974,0.0001422,53.2163,199.0496,105.7457,254.3692,3.5648e-05,2.79e-06,0.0,0 STARLINK-5242,1 54173U 22141S   23239.05149106  .00000279  00000-0  35648-4 0  9993,2 54173  53.2163 199.0496 0001422 105.7457 254.3692 15.08839974 46126,6917.88,95.438,540.729,538.762,0.0
54173.0,STARLINK-5242,PAYLOAD,2023-08-27 06:00:17,15.08845015,0.00014,53.2166,198.1583,96.3265,263.7887,7.8294e-05,9.58e-06,0.0,0 STARLINK-5242,1 54173U 22141S   23239.25020696  .00000958  00000-0  78294-4 0  9995,2 54173  53.2166 198.1583 0001400  96.3265 263.7887 15.08845015 46150,6917.865,95.437,540.699,538.762,0.0
54173.0,STARLINK-5242,PAYLOAD,2023-08-28 01:04:56,15.08829802,0.0001487,53.2176,194.5926,95.6154,264.5008,5.5291e-06,-2e-06,0.0,0 STARLINK-5242,1 54173U 22141S   23240.04510140 -.00000200  00000-0  55291-5 0  9996,2 54173  53.2176 194.5926 0001487  95.6154 264.5008 15.08829802 46279,6917.912,95.438,540.805,538.748,0.0
54173.0,STARLINK-5242,PAYLOAD,2023-08-28 05:51:05,15.0884765,0.0001513,53.2176,193.6997,92.9152,267.2013,-0.00018546,-3.239e-05,0.0,0 STARLINK-5242,1 54173U 22141S   23240.24381651 -.00003239  00000-0 -18546-3 0  9997,2 54173  53.2176 193.6997 0001513  92.9152 267.2013 15.08847650 46306,6917.857,95.437,540.769,538.675,0.0
54173.0,STARLINK-5242,PAYLOAD,2023-08-28 13:48:01,15.08835298,0.0001422,53.2173,192.2122,83.903,276.2124,3.1554e-06,-2.38e-06,0.0,0 STARLINK-5242,1 54173U 22141S   23240.57502004 -.00000238  00000-0  31554-5 0  9991,2 54173  53.2173 192.2122 0001422  83.9030 276.2124 15.08835298 46355,6917.895,95.438,540.743,538.776,0.0
54173.0,STARLINK-5242,PAYLOAD,2023-08-29 04:06:28,15.08853955,0.0001617,53.2175,189.5377,122.5372,237.5777,0.00012805,1.751e-05,0.0,0 STARLINK-5242,1 54173U 22141S   23241.17116305  .00001751  00000-0  12805-3 0  9999,2 54173  53.2175 189.5377 0001617 122.5372 237.5777 15.08853955 46447,6917.838,95.437,540.821,538.584,0.0
54173.0,STARLINK-5242,PAYLOAD,2023-08-29 13:38:45,15.08873829,0.0001457,53.2169,187.7515,92.5795,267.5364,0.00031994,4.812e-05,0.0,0 STARLINK-5242,1 54173U 22141S   23241.56858004  .00004812  00000-0  31994-3 0  9992,2 54173  53.2169 187.7515 0001457  92.5795 267.5364 15.08873829 46505,6917.777,95.435,540.65,538.634,0.0
54173.0,STARLINK-5242,PAYLOAD,2023-08-30 00:46:29,15.08843495,0.0001051,53.2159,185.6688,104.1288,255.9821,6.6239e-05,7.67e-06,0.0,0 STARLINK-5242,1 54173U 22141S   23242.03228203  .00000767  00000-0  66239-4 0  9993,2 54173  53.2159 185.6688 0001051 104.1288 255.9821 15.08843495 46571,6917.87,95.437,540.462,539.008,0.0
54173.0,STARLINK-5242,PAYLOAD,2023-08-30 05:32:39,15.08828712,0.0001184,53.2163,184.7773,82.8978,277.2148,-5.3441e-05,-1.138e-05,0.0,0 STARLINK-5242,1 54173U 22141S   23242.23101657 -.00001138  00000-0 -53441-4 0  9994,2 54173  53.2163 184.7773 0001184  82.8978 277.2148 15.08828712 46604,6917.915,95.438,540.599,538.961,0.0
54173.0,STARLINK-5242,PAYLOAD,2023-08-30 13:29:35,15.08826178,0.0001215,53.2165,183.2911,80.7674,279.3456,-8.9643e-05,-1.714e-05,0.0,0 STARLINK-5242,1 54173U 22141S   23242.56222119 -.00001714  00000-0 -89643-4 0  9990,2 54173  53.2165 183.2911 0001215  80.7674 279.3456 15.08826178 46653,6917.923,95.438,540.628,538.947,0.0
54173.0,STARLINK-5242,PAYLOAD,2023-08-31 05:23:27,15.08836452,0.0001264,53.2157,180.3189,102.4542,257.6592,-0.00014646,-2.618e-05,0.0,0 STARLINK-5242,1 54173U 22141S   23243.22462015 -.00002618  00000-0 -14646-3 0  9999,2 54173  53.2157 180.3189 0001264 102.4542 257.6592 15.08836452 46756,6917.891,95.438,540.631,538.882,0.0
54173.0,STARLINK-5242,PAYLOAD,2023-09-01 02:03:27,15.08838108,0.0001195,53.2169,176.4498,101.8396,258.273,4.6841e-07,-2.8e-06,0.0,0 STARLINK-5242,1 54173U 22141S   23244.08573249 -.00000280  00000-0  46841-6 0  9993,2 54173  53.2169 176.4498 0001195 101.8396 258.2730 15.08838108 46886,6917.886,95.438,540.578,538.924,0.0
